[{"OBJECT_NAME":"CAS-2T & KS-1Q","OBJECT_ID":"2016-066G","EPOCH":"2026-03-09T16:58:07.740192","MEAN_MOTION":14.44469485,"ECCENTRICITY":0.03436678,"INCLINATION":98.388,"RA_OF_ASC_NODE":145.5568,"ARG_OF_PERICENTER":71.4405,"MEAN_ANOMALY":292.3791,"EPHEMERIS_TYPE":0,"CLASSIFICATION_TYPE":"U","NORAD_CAT_ID":41847,"ELEMENT_SET_NO":999,"REV_AT_EPOCH":49043,"BSTAR":0.00023398968,"MEAN_MOTION_DOT":1.617e-5,"MEAN_MOTION_DDOT":0},{"OBJECT_NAME":"STARLINK-33988","OBJECT_ID":"2025-098N","EPOCH":"2026-03-09T23:26:18.344544","MEAN_MOTION":14.98336028,"ECCENTRICITY":0.00028424,"INCLINATION":69.9995,"RA_OF_ASC_NODE":273.8036,"ARG_OF_PERICENTER":297.4252,"MEAN_ANOMALY":62.6618,"EPHEMERIS_TYPE":0,"CLASSIFICATION_TYPE":"U","NORAD_CAT_ID":63938,"ELEMENT_SET_NO":999,"REV_AT_EPOCH":4659,"BSTAR":0.00025609736,"MEAN_MOTION_DOT":2.964e-5,"MEAN_MOTION_DDOT":0}]
